[{"OBJECT_NAME":"STARLINK-33762","OBJECT_ID":"2025-069K","EPOCH":"2026-03-02T15:14:13.848864","MEAN_MOTION":15.30204248,"ECCENTRICITY":0.0001253,"INCLINATION":53.1598,"RA_OF_ASC_NODE":175.3175,"ARG_OF_PERICENTER":59.8067,"MEAN_ANOMALY":300.3058,"EPHEMERIS_TYPE":0,"CLASSIFICATION_TYPE":"U","NORAD_CAT_ID":63442,"ELEMENT_SET_NO":999,"REV_AT_EPOCH":5232,"BSTAR":0.00045179,"MEAN_MOTION_DOT":0.00013047,"MEAN_MOTION_DDOT":0},{"OBJECT_NAME":"STARLINK-33753","OBJECT_ID":"2025-069L","EPOCH":"2026-03-02T14:59:01.929696","MEAN_MOTION":15.30206853,"ECCENTRICITY":0.0001246,"INCLINATION":53.16,"RA_OF_ASC_NODE":175.2483,"ARG_OF_PERICENTER":81.5407,"MEAN_ANOMALY":278.5735,"EPHEMERIS_TYPE":0,"CLASSIFICATION_TYPE":"U","NORAD_CAT_ID":63443,"ELEMENT_SET_NO":999,"REV_AT_EPOCH":5231,"BSTAR":0.00056099,"MEAN_MOTION_DOT":0.00016296,"MEAN_MOTION_DDOT":0},{"OBJECT_NAME":"STARLINK-33747","OBJECT_ID":"2025-069M","EPOCH":"2026-03-02T16:23:58.007328","MEAN_MOTION":15.30204072,"ECCENTRICITY":0.0001117,"INCLINATION":53.159,"RA_OF_ASC_NODE":174.9027,"ARG_OF_PERICENTER":88.7541,"MEAN_ANOMALY":271.3588,"EPHEMERIS_TYPE":0,"CLASSIFICATION_TYPE":"U","NORAD_CAT_ID":63444,"ELEMENT_SET_NO":999,"REV_AT_EPOCH":5228,"BSTAR":0.00078584338,"MEAN_MOTION_DOT":0.0002299,"MEAN_MOTION_DDOT":0},{"OBJECT_NAME":"STARLINK-33659","OBJECT_ID":"2025-069N","EPOCH":"2026-03-02T12:36:31.335552","MEAN_MOTION":15.3020334,"ECCENTRICITY":0.00010398,"INCLINATION":53.1604,"RA_OF_ASC_NODE":176.0504,"ARG_OF_PERICENTER":96.3497,"MEAN_ANOMALY":263.7622,"EPHEMERIS_TYPE":0,"CLASSIFICATION_TYPE":"U","NORAD_CAT_ID":63445,"ELEMENT_SET_NO":999,"REV_AT_EPOCH":5225,"BSTAR":0.00072075877,"MEAN_MOTION_DOT":0.0002105,"MEAN_MOTION_DDOT":0},{"OBJECT_NAME":"STARLINK-33746","OBJECT_ID":"2025-069P","EPOCH":"2026-03-02T15:06:38.005920","MEAN_MOTION":15.30194794,"ECCENTRICITY":0.000119,"INCLINATION":53.16,"RA_OF_ASC_NODE":175.2792,"ARG_OF_PERICENTER":81.7455,"MEAN_ANOMALY":278.3681,"EPHEMERIS_TYPE":0,"CLASSIFICATION_TYPE":"U","NORAD_CAT_ID":63446,"ELEMENT_SET_NO":999,"REV_AT_EPOCH":5227,"BSTAR":0.00052155,"MEAN_MOTION_DOT":0.00015117,"MEAN_MOTION_DDOT":0},{"OBJECT_NAME":"STARLINK-33799","OBJECT_ID":"2025-069Q","EPOCH":"2026-03-02T14:07:31.455264","MEAN_MOTION":15.3020171,"ECCENTRICITY":9.16e-5,"INCLINATION":53.16,"RA_OF_ASC_NODE":175.7325,"ARG_OF_PERICENTER":75.4307,"MEAN_ANOMALY":284.6795,"EPHEMERIS_TYPE":0,"CLASSIFICATION_TYPE":"U","NORAD_CAT_ID":63447,"ELEMENT_SET_NO":999,"REV_AT_EPOCH":5220,"BSTAR":0.00053073,"MEAN_MOTION_DOT":0.00015393,"MEAN_MOTION_DDOT":0},{"OBJECT_NAME":"STARLINK-33797","OBJECT_ID":"2025-069R","EPOCH":"2026-03-02T16:14:51.117792","MEAN_MOTION":15.30196174,"ECCENTRICITY":0.00010678,"INCLINATION":53.1587,"RA_OF_ASC_NODE":174.8667,"ARG_OF_PERICENTER":65.5425,"MEAN_ANOMALY":294.5687,"EPHEMERIS_TYPE":0,"CLASSIFICATION_TYPE":"U","NORAD_CAT_ID":63448,"ELEMENT_SET_NO":999,"REV_AT_EPOCH":5228,"BSTAR":0.00026296335,"MEAN_MOTION_DOT":7.436e-5,"MEAN_MOTION_DDOT":0},{"OBJECT_NAME":"STARLINK-33798","OBJECT_ID":"2025-069S","EPOCH":"2026-03-02T17:20:10.081824","MEAN_MOTION":15.30199172,"ECCENTRICITY":0.0002,"INCLINATION":53.1587,"RA_OF_ASC_NODE":175.1328,"ARG_OF_PERICENTER":97.518,"MEAN_ANOMALY":262.6049,"EPHEMERIS_TYPE":0,"CLASSIFICATION_TYPE":"U","NORAD_CAT_ID":63449,"ELEMENT_SET_NO":999,"REV_AT_EPOCH":5206,"BSTAR":-0.0011506168,"MEAN_MOTION_DOT":-0.00034282,"MEAN_MOTION_DDOT":0},{"OBJECT_NAME":"STARLINK-33736","OBJECT_ID":"2025-069T","EPOCH":"2026-03-02T14:31:40.861920","MEAN_MOTION":15.30194448,"ECCENTRICITY":0.0001051,"INCLINATION":53.1576,"RA_OF_ASC_NODE":175.1255,"ARG_OF_PERICENTER":69.0283,"MEAN_ANOMALY":291.083,"EPHEMERIS_TYPE":0,"CLASSIFICATION_TYPE":"U","NORAD_CAT_ID":63450,"ELEMENT_SET_NO":999,"REV_AT_EPOCH":5227,"BSTAR":0.00036602,"MEAN_MOTION_DOT":0.00010495,"MEAN_MOTION_DDOT":0},{"OBJECT_NAME":"STARLINK-33740","OBJECT_ID":"2025-069U","EPOCH":"2026-03-02T15:02:04.452288","MEAN_MOTION":15.30185439,"ECCENTRICITY":0.0001258,"INCLINATION":53.1599,"RA_OF_ASC_NODE":175.2559,"ARG_OF_PERICENTER":74.2398,"MEAN_ANOMALY":285.8742,"EPHEMERIS_TYPE":0,"CLASSIFICATION_TYPE":"U","NORAD_CAT_ID":63451,"ELEMENT_SET_NO":999,"REV_AT_EPOCH":5221,"BSTAR":0.0011752,"MEAN_MOTION_DOT":0.00034594,"MEAN_MOTION_DDOT":0},{"OBJECT_NAME":"STARLINK-33763","OBJECT_ID":"2025-069V","EPOCH":"2026-03-02T14:39:16.549344","MEAN_MOTION":15.30182283,"ECCENTRICITY":9.34e-5,"INCLINATION":53.1587,"RA_OF_ASC_NODE":175.1487,"ARG_OF_PERICENTER":64.0075,"MEAN_ANOMALY":296.1022,"EPHEMERIS_TYPE":0,"CLASSIFICATION_TYPE":"U","NORAD_CAT_ID":63452,"ELEMENT_SET_NO":999,"REV_AT_EPOCH":5232,"BSTAR":0.0012635,"MEAN_MOTION_DOT":0.00037228,"MEAN_MOTION_DDOT":0},{"OBJECT_NAME":"STARLINK-33784","OBJECT_ID":"2025-069W","EPOCH":"2026-03-02T14:06:00.403488","MEAN_MOTION":15.30191214,"ECCENTRICITY":0.0001043,"INCLINATION":53.16,"RA_OF_ASC_NODE":175.725,"ARG_OF_PERICENTER":87.8671,"MEAN_ANOMALY":272.2449,"EPHEMERIS_TYPE":0,"CLASSIFICATION_TYPE":"U","NORAD_CAT_ID":63453,"ELEMENT_SET_NO":999,"REV_AT_EPOCH":5231,"BSTAR":0.00082132,"MEAN_MOTION_DOT":0.00024038,"MEAN_MOTION_DDOT":0},{"OBJECT_NAME":"STARLINK-33768","OBJECT_ID":"2025-069X","EPOCH":"2026-03-02T16:31:34.100832","MEAN_MOTION":15.30191826,"ECCENTRICITY":0.00016932,"INCLINATION":53.1599,"RA_OF_ASC_NODE":174.9191,"ARG_OF_PERICENTER":89.7019,"MEAN_ANOMALY":270.4176,"EPHEMERIS_TYPE":0,"CLASSIFICATION_TYPE":"U","NORAD_CAT_ID":63454,"ELEMENT_SET_NO":999,"REV_AT_EPOCH":5233,"BSTAR":0.00076114952,"MEAN_MOTION_DOT":0.00022246,"MEAN_MOTION_DDOT":0},{"OBJECT_NAME":"STARLINK-33761","OBJECT_ID":"2025-069Y","EPOCH":"2026-03-02T16:17:53.363904","MEAN_MOTION":15.30194152,"ECCENTRICITY":0.00012618,"INCLINATION":53.1584,"RA_OF_ASC_NODE":174.8634,"ARG_OF_PERICENTER":75.7467,"MEAN_ANOMALY":284.3674,"EPHEMERIS_TYPE":0,"CLASSIFICATION_TYPE":"U","NORAD_CAT_ID":63455,"ELEMENT_SET_NO":999,"REV_AT_EPOCH":5233,"BSTAR":0.00036146855,"MEAN_MOTION_DOT":0.0001036,"MEAN_MOTION_DDOT":0},{"OBJECT_NAME":"STARLINK-33737","OBJECT_ID":"2025-069Z","EPOCH":"2026-03-02T18:01:03.339840","MEAN_MOTION":15.30205214,"ECCENTRICITY":0.00011603,"INCLINATION":53.159,"RA_OF_ASC_NODE":174.5919,"ARG_OF_PERICENTER":77.3076,"MEAN_ANOMALY":282.8054,"EPHEMERIS_TYPE":0,"CLASSIFICATION_TYPE":"U","NORAD_CAT_ID":63456,"ELEMENT_SET_NO":999,"REV_AT_EPOCH":5223,"BSTAR":0.00081894204,"MEAN_MOTION_DOT":0.00023978,"MEAN_MOTION_DDOT":0},{"OBJECT_NAME":"STARLINK-33795","OBJECT_ID":"2025-069AA","EPOCH":"2026-03-02T13:58:24.724704","MEAN_MOTION":15.30182522,"ECCENTRICITY":0.0001056,"INCLINATION":53.1612,"RA_OF_ASC_NODE":175.6851,"ARG_OF_PERICENTER":92.2269,"MEAN_ANOMALY":267.8853,"EPHEMERIS_TYPE":0,"CLASSIFICATION_TYPE":"U","NORAD_CAT_ID":63457,"ELEMENT_SET_NO":999,"REV_AT_EPOCH":5220,"BSTAR":0.00074872,"MEAN_MOTION_DOT":0.00021869,"MEAN_MOTION_DDOT":0},{"OBJECT_NAME":"STARLINK-33756","OBJECT_ID":"2025-069AB","EPOCH":"2026-03-02T14:02:57.871392","MEAN_MOTION":15.30198924,"ECCENTRICITY":0.0001346,"INCLINATION":53.1597,"RA_OF_ASC_NODE":175.6952,"ARG_OF_PERICENTER":77.2897,"MEAN_ANOMALY":282.8254,"EPHEMERIS_TYPE":0,"CLASSIFICATION_TYPE":"U","NORAD_CAT_ID":63458,"ELEMENT_SET_NO":999,"REV_AT_EPOCH":5231,"BSTAR":0.00075029,"MEAN_MOTION_DOT":0.00021927,"MEAN_MOTION_DDOT":0},{"OBJECT_NAME":"STARLINK-33780","OBJECT_ID":"2025-069AC","EPOCH":"2026-03-02T16:22:26.424192","MEAN_MOTION":15.30203469,"ECCENTRICITY":8.876e-5,"INCLINATION":53.1587,"RA_OF_ASC_NODE":174.8782,"ARG_OF_PERICENTER":102.8734,"MEAN_ANOMALY":257.2366,"EPHEMERIS_TYPE":0,"CLASSIFICATION_TYPE":"U","NORAD_CAT_ID":63459,"ELEMENT_SET_NO":999,"REV_AT_EPOCH":5222,"BSTAR":0.00060215958,"MEAN_MOTION_DOT":0.00017519,"MEAN_MOTION_DDOT":0},{"OBJECT_NAME":"STARLINK-33679","OBJECT_ID":"2025-070A","EPOCH":"2026-03-02T16:42:40.419360","MEAN_MOTION":15.27598559,"ECCENTRICITY":6.155e-5,"INCLINATION":42.9973,"RA_OF_ASC_NODE":299.611,"ARG_OF_PERICENTER":283.9247,"MEAN_ANOMALY":76.1536,"EPHEMERIS_TYPE":0,"CLASSIFICATION_TYPE":"U","NORAD_CAT_ID":63460,"ELEMENT_SET_NO":999,"REV_AT_EPOCH":5190,"BSTAR":0.0010669387,"MEAN_MOTION_DOT":0.00029231,"MEAN_MOTION_DDOT":0},{"OBJECT_NAME":"STARLINK-33706","OBJECT_ID":"2025-070B","EPOCH":"2026-03-02T16:48:13.169952","MEAN_MOTION":15.27589386,"ECCENTRICITY":3.979e-5,"INCLINATION":42.9974,"RA_OF_ASC_NODE":299.6112,"ARG_OF_PERICENTER":281.5139,"MEAN_ANOMALY":78.5668,"EPHEMERIS_TYPE":0,"CLASSIFICATION_TYPE":"U","NORAD_CAT_ID":63461,"ELEMENT_SET_NO":999,"REV_AT_EPOCH":5190,"BSTAR":0.00090001812,"MEAN_MOTION_DOT":0.00024594,"MEAN_MOTION_DDOT":0},{"OBJECT_NAME":"STARLINK-33691","OBJECT_ID":"2025-070C","EPOCH":"2026-03-02T09:17:34.430784","MEAN_MOTION":15.27574768,"ECCENTRICITY":7.156e-5,"INCLINATION":43.003,"RA_OF_ASC_NODE":300.6946,"ARG_OF_PERICENTER":326.6474,"MEAN_ANOMALY":33.4333,"EPHEMERIS_TYPE":0,"CLASSIFICATION_TYPE":"U","NORAD_CAT_ID":63462,"ELEMENT_SET_NO":999,"REV_AT_EPOCH":5181,"BSTAR":0.00094031932,"MEAN_MOTION_DOT":0.00025699,"MEAN_MOTION_DDOT":0},{"OBJECT_NAME":"STARLINK-33696","OBJECT_ID":"2025-070D","EPOCH":"2026-03-02T17:45:21.414816","MEAN_MOTION":15.27576437,"ECCENTRICITY":0.0001744,"INCLINATION":42.9997,"RA_OF_ASC_NODE":299.0446,"ARG_OF_PERICENTER":264.0133,"MEAN_ANOMALY":96.052,"EPHEMERIS_TYPE":0,"CLASSIFICATION_TYPE":"U","NORAD_CAT_ID":63463,"ELEMENT_SET_NO":999,"REV_AT_EPOCH":5191,"BSTAR":0.00020006484,"MEAN_MOTION_DOT":5.247e-5,"MEAN_MOTION_DDOT":0},{"OBJECT_NAME":"STARLINK-33701","OBJECT_ID":"2025-070E","EPOCH":"2026-03-02T16:53:45.852288","MEAN_MOTION":15.27595383,"ECCENTRICITY":1.323e-5,"INCLINATION":42.9976,"RA_OF_ASC_NODE":299.6377,"ARG_OF_PERICENTER":184.0114,"MEAN_ANOMALY":176.0736,"EPHEMERIS_TYPE":0,"CLASSIFICATION_TYPE":"U","NORAD_CAT_ID":63464,"ELEMENT_SET_NO":999,"REV_AT_EPOCH":5190,"BSTAR":0.00096874176,"MEAN_MOTION_DOT":0.00026504,"MEAN_MOTION_DDOT":0}]
